INTELSAT 9 (IS-9)       
1 26451U 00043A   25175.91780612 -.00000052  00000+0  00000+0 0  9995
2 26451   9.5985  52.4404 0001050 191.0283  16.2132  0.99429417 40559
INTELSAT 10 (IS-10)     
1 26766U 01019A   25175.82058700 -.00000016  00000+0  00000+0 0  9994
2 26766   8.2178  62.9014 0003026  13.1548 198.6444  1.00271553 42039
INTELSAT 902 (IS-902)   
1 26900U 01039A   25175.48997314 -.00000287  00000+0  00000+0 0  9991
2 26900   5.2121  76.1748 0004267  18.4726 304.5545  1.00271920 87182
INTELSAT 904 (IS-904)   
1 27380U 02007A   25175.49466468 -.00000204  00000+0  00000+0 0  9991
2 27380   6.0234  73.4851 0002473  29.2062 320.6303  1.00308383 48175
DIRECTV 5 (TEMPO 1)     
1 27426U 02023A   25176.40631524 -.00000062  00000+0  00000+0 0  9991
2 27426   3.9643  79.8072 0003249  30.5692 199.5610  1.00271845 84544
INTELSAT 905 (IS-905)   
1 27438U 02027A   25176.40092866  .00000087  00000+0  00000+0 0  9994
2 27438   5.8545  74.1114 0002195  21.0896 185.7112  1.00273829 47787
GALAXY 3C (G-3C)        
1 27445U 02030A   25176.40935605 -.00000157  00000+0  00000+0 0  9992
2 27445   2.8142  82.4891 0003028  50.0583 193.7604  1.00271167 42918
INTELSAT 906 (IS-906)   
1 27513U 02041A   25176.22669266  .00000007  00000+0  00000+0 0  9990
2 27513   4.8940  77.3502 0003999  18.2673 323.7617  1.00272708 83441
GALAXY 23 (G-23)        
1 27854U 03034A   25176.46995115  .00000110  00000+0  00000+0 0  9997
2 27854   2.2754  84.1123 0000436 193.6061  16.3380  0.99723772 84960
GALAXY 13 (HORIZONS-1)  
1 27954U 03044A   25176.46977740  .00000130  00000+0  00000+0 0  9995
2 27954   0.4957  89.4964 0002132 353.1615 210.3126  1.00270412 42992
INTELSAT 10-02          
1 28358U 04022A   25176.42786160 -.00000013  00000+0  00000+0 0  9992
2 28358   0.0171   2.1829 0000662  98.0479 326.6358  1.00271373 76976
XM-3 (RHYTHM)           
1 28626U 05008A   25176.26830490 -.00000200  00000+0  00000+0 0  9991
2 28626   0.0477 157.4400 0000087 148.8954 337.5624  1.00269244 39043
DIRECTV 8               
1 28659U 05019A   25176.47594589 -.00000001  00000+0  00000+0 0  9997
2 28659   0.0128  50.5788 0002707  44.0366 231.5224  1.00271225 73497
GALAXY 28 (G-28)        
1 28702U 05022A   25176.41057238 -.00000191  00000+0  00000+0 0  9999
2 28702   2.3790  83.4339 0002537  27.6240 221.8472  1.00270982 48401
GALAXY 16 (G-16)        
1 29236U 06023A   25176.40848726 -.00000129  00000+0  00000+0 0  9994
2 29236   0.0434 219.0381 0002667 251.8036 210.9967  1.00271814 69390
DIRECTV 9S              
1 29494U 06043A   25176.12253994 -.00000115  00000+0  00000+0 0  9993
2 29494   1.4984  85.3575 0002723  13.3506 117.7156  1.00271622 47809
GALAXY 17 (G-17)        
1 31307U 07016B   25176.41126743 -.00000210  00000+0  00000+0 0  9999
2 31307   2.0684  84.5152 0002389  41.9061 210.4163  1.00271013 66222
DIRECTV 10              
1 31862U 07032A   25176.40779221 -.00000105  00000+0  00000+0 0  9990
2 31862   0.0125 259.4260 0000562 307.0177 111.3563  1.00270678 42014
INTELSAT 11 (IS-11)     
1 32253U 07044B   25176.40727093  .00000034  00000+0  00000+0 0  9998
2 32253   2.6349  83.1245 0003582  75.8563 156.2296  0.99046592 64911
HORIZONS-2              
1 32388U 07063B   25176.41352632 -.00000256  00000+0  00000+0 0  9999
2 32388   1.6807  85.1500 0001894  28.5254 235.1805  1.00270118 64234
DIRECTV 11              
1 32729U 08013A   25176.40848726 -.00000127  00000+0  00000+0 0  9994
2 32729   0.0034  94.6945 0000548 165.0292  61.9323  1.00270924 42017
GALAXY 18 (G-18)        
1 32951U 08024A   25176.47516397  .00000023  00000+0  00000+0 0  9990
2 32951   0.0167  33.0767 0002671  59.8243 228.9945  1.00271431 42272
INTELSAT 25 (IS-25)     
1 33153U 08034A   25176.48169858 -.00000227  00000+0  00000+0 0  9990
2 33153   1.7877  84.8136 0002887  19.0950 311.8587  1.00273043 62119
GALAXY 19 (G-19)        
1 33376U 08045A   25176.40892166 -.00000141  00000+0  00000+0 0  9991
2 33376   0.0160 298.7369 0002873 171.5009 213.7669  1.00272111 61329
FM-5                    
1 35493U 09034A   25176.41109367 -.00000202  00000+0  00000+0 0  9995
2 35493   0.0179 349.9643 0000485 322.9629  22.6969  1.00269689 43069
INTELSAT 14 (IS-14)     
1 36097U 09064A   25176.48725372 -.00000276  00000+0  00000+0 0  9997
2 36097   0.0113  18.2459 0002279  90.0155 296.0171  1.00270168 57026
INTELSAT 15 (IS-15)     
1 36106U 09067A   25176.57556177 -.00000188  00000+0  00000+0 0  9998
2 36106   0.0171 342.4338 0001892 116.5708 107.2918  1.00270394 37657
DIRECTV 12              
1 36131U 09075A   25176.40779221 -.00000105  00000+0  00000+0 0  9993
2 36131   0.0067  88.4167 0000402  11.5277 217.9215  1.00272084 42975
INTELSAT 16 (IS-16)     
1 36397U 10006A   25176.41300503 -.00000246  00000+0  00000+0 0  9993
2 36397   0.0291 297.7908 0001879 174.1168 234.3690  1.00270440 56070
XM-5                    
1 37185U 10053A   25176.40527267 -.00000025  00000+0  00000+0 0  9993
2 37185   0.0413 279.8252 0000415  25.6900 358.9624  1.00269863 53900
INTELSAT 17 (IS-17)     
1 37238U 10065B   25176.44122830 -.00000004  00000+0  00000+0 0  9993
2 37238   0.0273  66.5150 0002683  48.8134  23.3149  1.00272667 49676
INTELSAT 28 (IS-28)     
1 37392U 11016A   25176.48169858 -.00000228  00000+0  00000+0 0  9994
2 37392   0.8836  87.3939 0003733   0.6015 327.5824  1.00270473 49703
INTELSAT 18 (IS-18)     
1 37834U 11056A   25176.48191964  .00000051  00000+0  00000+0 0  9995
2 37834   0.0194  35.1340 0001735  76.3665 155.8406  1.00273023 50233
INTELSAT 22 (IS-22)     
1 38098U 12011A   25176.44244463 -.00000061  00000+0  00000+0 0  9991
2 38098   0.0354  55.1242 0001666  67.8243  22.2501  1.00270395  3619
INTELSAT 19 (IS-19)     
1 38356U 12030A   25176.46102109 -.00000059  00000+0  00000+0 0  9998
2 38356   0.0174 356.2045 0002765 101.4904 148.1104  1.00270967 46879
INTELSAT 20 (IS-20)     
1 38740U 12043A   25176.22756147 -.00000026  00000+0  00000+0 0  9994
2 38740   0.0419  74.1800 0001068 106.8075 243.0334  1.00272644 47163
INTELSAT 21 (IS-21)     
1 38749U 12045A   25176.41665402 -.00000287  00000+0  00000+0 0  9998
2 38749   0.0181  16.6327 0001724  94.1737 254.9798  1.00270057 46942
INTELSAT 23 (IS-23)     
1 38867U 12057A   25176.41760970 -.00000287  00000+0  00000+0 0  9998
2 38867   0.0408 109.3922 0001276 275.8673 345.8883  1.00267799 46376
FM-6                    
1 39360U 13058A   25176.40509891 -.00000018  00000+0  00000+0 0  9993
2 39360   0.0415  70.3254 0001536  92.3011 140.8136  1.00269474 42489
INTELSAT 30 (IS-30)     
1 40271U 14062A   25176.40926918 -.00000152  00000+0  00000+0 0  9994
2 40271   0.0147  29.8015 0001122 346.7466 309.5020  1.00269732  3209
DIRECTV 14              
1 40333U 14078B   25176.40848726 -.00000127  00000+0  00000+0 0  9992
2 40333   0.0270  26.5171 0000541 176.0738 119.0380  1.00269550 38469
DIRECTV 15              
1 40663U 15026A   25176.40779221 -.00000104  00000+0  00000+0 0  9990
2 40663   0.0175  26.1724 0000155 263.8146  27.7387  1.00271187 36883
SKY MEXICO-1            
1 40664U 15026B   25176.41248375 -.00000236  00000+0  00000+0 0  9999
2 40664   0.0116 344.2049 0001813 117.5801 241.7264  1.00269801 36879
INTELSAT 34 (IS-34)     
1 40874U 15039A   25176.41717530 -.00000287  00000+0  00000+0 0  9996
2 40874   0.0084  26.5199 0001462 310.0955  31.8637  1.00270577 36045
INTELSAT 31 (IS-31)     
1 41581U 16035A   25175.90959435 -.00000151  00000+0  00000+0 0  9994
2 41581   0.0149 310.0547 0001977 292.2286 263.3974  1.00271056 33103
INTELSAT 36 (IS-36)     
1 41747U 16053A   25176.51795865 -.00000027  00000+0  00000+0 0  9993
2 41747   0.0140  26.9698 0001856 300.3726 201.5090  1.00270746 32370
INTELSAT 32E (IS-32E)   
1 41945U 17007B   25176.48725372 -.00000271  00000+0  00000+0 0  9996
2 41945   0.0194  62.2851 0000940 265.3708  78.4326  1.00269251 30646
INTELSAT 35E (IS-35E)   
1 42818U 17041A   25176.48169858 -.00000240  00000+0  00000+0 0  9991
2 42818   0.0266 285.2152 0001641 161.4600 326.1103  1.00271414 29236
INTELSAT 37E (IS-37E)   
1 42950U 17059A   25176.42456014 -.00000143  00000+0  00000+0 0  9996
2 42950   0.0165  38.1777 0002394  82.0364 288.4290  1.00271430 28481
AZERSPACE 2 (IS-38)     
1 43632U 18074A   25176.53864336  .00000134  00000+0  00000+0 0  9993
2 43632   0.0177  15.2496 0001146  79.5428  58.1351  1.00271620 24872
HORIZONS-3E             
1 43633U 18074B   25175.89056447 -.00000031  00000+0  00000+0 0  9995
2 43633   0.0219 176.6080 0001012 109.3853 116.8941  1.00273506 24756
AT&T T-16               
1 44333U 19034A   25176.12262684 -.00000116  00000+0  00000+0 0  9993
2 44333   0.0319  76.3401 0000388 238.0992 262.3387  1.00269226 22053
INTELSAT 39 (IS-39)     
1 44476U 19049B   25176.61051598  .00000031  00000+0  00000+0 0  9996
2 44476   0.0173   3.1176 0001351 315.2820 237.3112  1.00271122 21555
GALAXY 30 (G-30)        
1 46114U 20056C   25176.47472957  .00000035  00000+0  00000+0 0  9991
2 46114   0.0121  48.1775 0001827  47.4582 224.0988  1.00270518 17715
GALAXY 33 (G-33)        
1 54026U 22128A   25176.47316572  .00000077  00000+0  00000+0 0  9990
2 54026   0.0175 348.8163 0001398 111.7982 210.5845  1.00274382 10165
GALAXY 34 (G-34)        
1 54027U 22128B   25175.54594339  .00000060  00000+0  00000+0 0  9999
2 54027   0.0278 358.1276 0001180 108.2300 234.1205  1.00268550 10187
GALAXY 31 (G-31)        
1 54243U 22153A   25176.47551149  .00000011  00000+0  00000+0 0  9998
2 54243   0.0157  16.7634 0000340 160.5415 146.7432  1.00271591  3555
GALAXY 32 (G-32)        
1 54244U 22153B   25175.91037627 -.00000174  00000+0  00000+0 0  9998
2 54244   0.0107 355.5546 0001793  43.5058 110.9670  1.00272173  9564
GALAXY 35 (G-35)        
1 54741U 22170A   25176.40970358 -.00000164  00000+0  00000+0 0  9990
2 54741   0.0150 308.8974 0001716 143.1718 236.1058  1.00270993  9317
GALAXY 36 (G-36)        
1 54742U 22170B   25176.41048551 -.00000187  00000+0  00000+0 0  9998
2 54742   0.0148  57.6441 0002447  40.1563 234.7613  1.00270994  9197
GALAXY 37 (G-37)        
1 57493U 23112A   25176.47438205  .00000046  00000+0  00000+0 0  9999
2 57493   0.0109  29.4139 0001751  65.8860 222.3324  1.00272375  6961
